CCSDS_OMM_VERS = 2.0
CREATION_DATE  = 
ORIGINATOR     = 

OBJECT_NAME    = STARLINK-37085
OBJECT_ID      = 2026-054W
CENTER_NAME    = EARTH
REF_FRAME      = TEME
TIME_SYSTEM    = UTC
MEAN_ELEMENT_THEORY = SGP/SGP4

EPOCH          = 2026-03-28T20:00:01.999872
MEAN_MOTION    = 15.80817909
ECCENTRICITY   = .00011231
INCLINATION    = 53.1593
RA_OF_ASC_NODE = 216.5590
ARG_OF_PERICENTER = 111.1952
MEAN_ANOMALY   = 253.0402

EPHEMERIS_TYPE = 0
CLASSIFICATION_TYPE = U
NORAD_CAT_ID   = 68252
ELEMENT_SET_NO = 999
REV_AT_EPOCH   = 299
BSTAR          = .31914924E-3
MEAN_MOTION_DOT = .62588E-3
MEAN_MOTION_DDOT = 0

CCSDS_OMM_VERS = 2.0
CREATION_DATE  = 
ORIGINATOR     = 

OBJECT_NAME    = STARLINK-37086
OBJECT_ID      = 2026-054X
CENTER_NAME    = EARTH
REF_FRAME      = TEME
TIME_SYSTEM    = UTC
MEAN_ELEMENT_THEORY = SGP/SGP4

EPOCH          = 2026-03-28T20:00:01.999872
MEAN_MOTION    = 15.80814568
ECCENTRICITY   = .00012176
INCLINATION    = 53.1592
RA_OF_ASC_NODE = 216.5508
ARG_OF_PERICENTER = 93.4602
MEAN_ANOMALY   = 275.0265

EPHEMERIS_TYPE = 0
CLASSIFICATION_TYPE = U
NORAD_CAT_ID   = 68253
ELEMENT_SET_NO = 999
REV_AT_EPOCH   = 299
BSTAR          = .51213109E-3
MEAN_MOTION_DOT = .101298E-2
MEAN_MOTION_DDOT = 0

CCSDS_OMM_VERS = 2.0
CREATION_DATE  = 
ORIGINATOR     = 

OBJECT_NAME    = STARLINK-37084
OBJECT_ID      = 2026-054Y
CENTER_NAME    = EARTH
REF_FRAME      = TEME
TIME_SYSTEM    = UTC
MEAN_ELEMENT_THEORY = SGP/SGP4

EPOCH          = 2026-03-28T20:00:01.999872
MEAN_MOTION    = 15.80839201
ECCENTRICITY   = .00010384
INCLINATION    = 53.1592
RA_OF_ASC_NODE = 216.5330
ARG_OF_PERICENTER = 99.0370
MEAN_ANOMALY   = 278.0057

EPHEMERIS_TYPE = 0
CLASSIFICATION_TYPE = U
NORAD_CAT_ID   = 68254
ELEMENT_SET_NO = 999
REV_AT_EPOCH   = 299
BSTAR          = .14412686E-3
MEAN_MOTION_DOT = .27794E-3
MEAN_MOTION_DDOT = 0

CCSDS_OMM_VERS = 2.0
CREATION_DATE  = 
ORIGINATOR     = 

OBJECT_NAME    = STARLINK-37075
OBJECT_ID      = 2026-054Z
CENTER_NAME    = EARTH
REF_FRAME      = TEME
TIME_SYSTEM    = UTC
MEAN_ELEMENT_THEORY = SGP/SGP4

EPOCH          = 2026-03-28T20:00:01.999872
MEAN_MOTION    = 15.80841483
ECCENTRICITY   = .0000959
INCLINATION    = 53.1592
RA_OF_ASC_NODE = 216.5417
ARG_OF_PERICENTER = 82.5409
MEAN_ANOMALY   = 290.2108

EPHEMERIS_TYPE = 0
CLASSIFICATION_TYPE = U
NORAD_CAT_ID   = 68255
ELEMENT_SET_NO = 999
REV_AT_EPOCH   = 299
BSTAR          = .25360224E-3
MEAN_MOTION_DOT = .49569E-3
MEAN_MOTION_DDOT = 0

CCSDS_OMM_VERS = 2.0
CREATION_DATE  = 
ORIGINATOR     = 

OBJECT_NAME    = STARLINK-36333
OBJECT_ID      = 2026-054AA
CENTER_NAME    = EARTH
REF_FRAME      = TEME
TIME_SYSTEM    = UTC
MEAN_ELEMENT_THEORY = SGP/SGP4

EPOCH          = 2026-03-28T20:00:01.999872
MEAN_MOTION    = 15.80829417
ECCENTRICITY   = .00010453
INCLINATION    = 53.1591
RA_OF_ASC_NODE = 216.5241
ARG_OF_PERICENTER = 63.7224
MEAN_ANOMALY   = 317.5737

EPHEMERIS_TYPE = 0
CLASSIFICATION_TYPE = U
NORAD_CAT_ID   = 68256
ELEMENT_SET_NO = 999
REV_AT_EPOCH   = 303
BSTAR          = .45950762E-3
MEAN_MOTION_DOT = .90767E-3
MEAN_MOTION_DDOT = 0

CCSDS_OMM_VERS = 2.0
CREATION_DATE  = 
ORIGINATOR     = 

OBJECT_NAME    = STARLINK-36745
OBJECT_ID      = 2026-054AB
CENTER_NAME    = EARTH
REF_FRAME      = TEME
TIME_SYSTEM    = UTC
MEAN_ELEMENT_THEORY = SGP/SGP4

EPOCH          = 2026-03-28T20:00:01.999872
MEAN_MOTION    = 15.80860719
ECCENTRICITY   = .0001458
INCLINATION    = 53.1592
RA_OF_ASC_NODE = 216.5059
ARG_OF_PERICENTER = 64.0507
MEAN_ANOMALY   = 325.7577

EPHEMERIS_TYPE = 0
CLASSIFICATION_TYPE = U
NORAD_CAT_ID   = 68257
ELEMENT_SET_NO = 999
REV_AT_EPOCH   = 299
BSTAR          = .13691573E-3
MEAN_MOTION_DOT = .26391E-3
MEAN_MOTION_DDOT = 0

CCSDS_OMM_VERS = 2.0
CREATION_DATE  = 
ORIGINATOR     = 

OBJECT_NAME    = STARLINK-36890
OBJECT_ID      = 2026-054AC
CENTER_NAME    = EARTH
REF_FRAME      = TEME
TIME_SYSTEM    = UTC
MEAN_ELEMENT_THEORY = SGP/SGP4

EPOCH          = 2026-03-28T20:00:01.999872
MEAN_MOTION    = 15.80843090
ECCENTRICITY   = .00012961
INCLINATION    = 53.1590
RA_OF_ASC_NODE = 216.4976
ARG_OF_PERICENTER = 63.7484
MEAN_ANOMALY   = 330.3569

EPHEMERIS_TYPE = 0
CLASSIFICATION_TYPE = U
NORAD_CAT_ID   = 68258
ELEMENT_SET_NO = 999
REV_AT_EPOCH   = 299
BSTAR          = .34627741E-3
MEAN_MOTION_DOT = .68091E-3
MEAN_MOTION_DDOT = 0

CCSDS_OMM_VERS = 2.0
CREATION_DATE  = 
ORIGINATOR     = 

OBJECT_NAME    = STARLINK-36323
OBJECT_ID      = 2026-054AD
CENTER_NAME    = EARTH
REF_FRAME      = TEME
TIME_SYSTEM    = UTC
MEAN_ELEMENT_THEORY = SGP/SGP4

EPOCH          = 2026-03-28T20:00:01.999872
MEAN_MOTION    = 15.80847321
ECCENTRICITY   = .00012083
INCLINATION    = 53.1590
RA_OF_ASC_NODE = 216.5153
ARG_OF_PERICENTER = 78.4932
MEAN_ANOMALY   = 307.0851

EPHEMERIS_TYPE = 0
CLASSIFICATION_TYPE = U
NORAD_CAT_ID   = 68259
ELEMENT_SET_NO = 999
REV_AT_EPOCH   = 303
BSTAR          = .10990161E-3
MEAN_MOTION_DOT = .21019E-3
MEAN_MOTION_DDOT = 0

CCSDS_OMM_VERS = 2.0
CREATION_DATE  = 
ORIGINATOR     = 

OBJECT_NAME    = STARLINK-37056
OBJECT_ID      = 2026-054AE
CENTER_NAME    = EARTH
REF_FRAME      = TEME
TIME_SYSTEM    = UTC
MEAN_ELEMENT_THEORY = SGP/SGP4

EPOCH          = 2026-03-28T20:00:01.999872
MEAN_MOTION    = 15.80796928
ECCENTRICITY   = .00014254
INCLINATION    = 53.1590
RA_OF_ASC_NODE = 216.4885
ARG_OF_PERICENTER = 77.6967
MEAN_ANOMALY   = 320.6922

EPHEMERIS_TYPE = 0
CLASSIFICATION_TYPE = U
NORAD_CAT_ID   = 68260
ELEMENT_SET_NO = 999
REV_AT_EPOCH   = 299
BSTAR          = .97926545E-3
MEAN_MOTION_DOT = .196343E-2
MEAN_MOTION_DDOT = 0

CCSDS_OMM_VERS = 2.0
CREATION_DATE  = 
ORIGINATOR     = 

OBJECT_NAME    = TEN-KOH 2
OBJECT_ID      = 2025-241B
CENTER_NAME    = EARTH
REF_FRAME      = TEME
TIME_SYSTEM    = UTC
MEAN_ELEMENT_THEORY = SGP/SGP4

EPOCH          = 2026-03-28T21:58:58.849824
MEAN_MOTION    = 15.22746398
ECCENTRICITY   = .00044601
INCLINATION    = 51.6387
RA_OF_ASC_NODE = 341.4537
ARG_OF_PERICENTER = 225.9744
MEAN_ANOMALY   = 134.0867

EPHEMERIS_TYPE = 0
CLASSIFICATION_TYPE = U
NORAD_CAT_ID   = 68261
ELEMENT_SET_NO = 999
REV_AT_EPOCH   = 267
BSTAR          = .4467232E-3
MEAN_MOTION_DOT = .10253E-3
MEAN_MOTION_DDOT = 0

CCSDS_OMM_VERS = 2.0
CREATION_DATE  = 
ORIGINATOR     = 

OBJECT_NAME    = STARLINK-37162
OBJECT_ID      = 2026-055A
CENTER_NAME    = EARTH
REF_FRAME      = TEME
TIME_SYSTEM    = UTC
MEAN_ELEMENT_THEORY = SGP/SGP4

EPOCH          = 2026-03-28T20:00:01.999872
MEAN_MOTION    = 15.95233118
ECCENTRICITY   = .00007085
INCLINATION    = 53.1581
RA_OF_ASC_NODE = 241.6872
ARG_OF_PERICENTER = 55.3988
MEAN_ANOMALY   = 346.5823

EPHEMERIS_TYPE = 0
CLASSIFICATION_TYPE = U
NORAD_CAT_ID   = 68262
ELEMENT_SET_NO = 999
REV_AT_EPOCH   = 271
BSTAR          = -.26974032E-2
MEAN_MOTION_DOT = -.1087597E-1
MEAN_MOTION_DDOT = .36793032E-3

CCSDS_OMM_VERS = 2.0
CREATION_DATE  = 
ORIGINATOR     = 

OBJECT_NAME    = STARLINK-37156
OBJECT_ID      = 2026-055B
CENTER_NAME    = EARTH
REF_FRAME      = TEME
TIME_SYSTEM    = UTC
MEAN_ELEMENT_THEORY = SGP/SGP4

EPOCH          = 2026-03-28T20:00:01.999872
MEAN_MOTION    = 15.95324745
ECCENTRICITY   = .00008504
INCLINATION    = 53.1580
RA_OF_ASC_NODE = 241.6824
ARG_OF_PERICENTER = 54.2191
MEAN_ANOMALY   = 350.2511

EPHEMERIS_TYPE = 0
CLASSIFICATION_TYPE = U
NORAD_CAT_ID   = 68263
ELEMENT_SET_NO = 999
REV_AT_EPOCH   = 271
BSTAR          = -.2700028E-2
MEAN_MOTION_DOT = -.1093995E-1
MEAN_MOTION_DDOT = .37221023E-3

